#dP2023  5 14  0  0  0.00000000      96 __u+U ITR00 FIT  IAC
## 2262      0.00000000   900.00000000 60078 0.0000000000000
+  118   C06C07C08C09C10C11C12C13C14C16C19C20C21C22C23C24C25
+        C26C27C28C29C30C32C33C34C35C36C37C38C39C40C41C42C43
+        C44C45C46E02E04E05E07E08E09E10E11E12E13E14E15E18E19
+        E21E24E25E26E27E30E31E33E34E36G01G02G03G04G05G06G07
+        G08G09G10G11G12G13G14G15G16G17G18G19G20G21G22G23G24
+        G25G26G27G28G29G30G31G32J02J03J04R01R02R03R04R05R07
+        R08R09R11R12R13R14R15R16R17R18R19R20R21R22R24R25  0
++        10  8  8  9  9  7  6  8  7  9  6  7  7  7  7  7  6
++         7  6  7  8  8  7  7  7  7  8  8  8  9  9  7  8  8
++         5  7  7  7  7  7  7  7  7  7  6  8  6  7  7  6  6
++         7  6  6  5  6  7  7  7  7  7  7  6  7  6  6  7  7
++         6  6  6  7  6  7  7  6  6  7  7  6  7  7  7  7  6
++         6  6  7  6  6  7  6  6  9  9  6  7  7  7  6  7  6
++         7  7  6  8  6  6  6  7  7  7  5  8  7  7  8  6  0
%c M  cc GPS ccc cccc cccc cccc cccc ccccc ccccc ccccc ccccc
%c cc cc ccc ccc cccc cccc cccc cccc ccccc ccccc ccccc ccccc
%f  0.0000000  0.000000000  0.00000000000  0.000000000000000
%f  0.0000000  0.000000000  0.00000000000  0.000000000000000
%i    0    0    0    0      0      0      0      0         0
%i    0    0    0    0      0      0      0      0         0
/* INFORMATION & ANALYSIS CENTER (IAC)      ULTRA-RAPID DATA
/* S/V CLOCKS ARE ALIGNED TO GNSS TIME                      
/* G:C1WC2W R:C1PC2P E:C1XC5X C:C2IC6I J:C1CC2S             
/* PCV:IGS20_2247 OL/AL:FES2004  NONE     YN ORB:CoN CLK:CoN
*  2023 05 14  0 15  0.00000000
PC06 -14904.042918  38675.081170   6985.085173   -191.500462
PC07  -3275.123538  32249.231021  27097.180769    -14.848966
PC08 -13892.198926  20241.831558 -34327.970849    486.000055
PC09  -8296.432721  37656.923147  16829.251077    656.937163
PC10   4915.242656  35710.088926  22572.598624    -57.694618
PC11 -16489.432653   3237.991177  22342.611481    617.810932
PC12  -9116.345904 -16699.447229  20442.921429    637.289196
PC13  -5487.883089  22196.178183 -35307.596699    274.009601
PC14 -21585.750311  -5573.201830 -16725.025423    255.927599
PC16 -17133.728110  38196.919667   3672.676368     79.259157
PC19  17215.074652  -3581.311154  21705.593143   -909.914336
PC20  22548.624358  12586.270721  10642.888789    569.565664
PC21 -14578.724853 -22462.489107   7815.884077   -914.576925
PC22   1711.119259 -18509.282722  20806.993413   -489.682336
PC23 -13720.950986  16675.976439  17680.078664   -927.939887
PC24 -23435.459716  -4717.264833 -14424.772982    -57.722156
PC25 -25955.466396   9753.260924   3233.331920    125.997489
PC26  -8386.314940 -14371.340876 -22419.536356   -119.917603
PC27   4114.128515  23192.047399 -14978.946717    139.792989
PC28  -8128.264287  26691.796810    519.718705    103.397674
PC29  16206.336135 -14474.581159 -17521.778069    120.017787
PC30  14621.395994   6991.099975 -22727.429755     -0.231180
PC32  14759.207201  22359.857056  -7822.571492   -562.850965
PC33 -17229.439390   3638.280400 -21633.979679   -881.419550
PC34 -15079.711389  -5582.049397  22792.153801    170.103313
PC35   7647.077679 -26831.631677  -1268.541869    628.053118
PC36  26398.577335  -8679.858889  -2509.735984   -443.372949
PC37   6685.181085  15017.703372  22562.488634   -784.402972
PC38 -21960.075890  21164.739882 -29146.120152     78.176896
PC39 -18375.148049  37737.680924  -2448.110268     -2.923434
PC40  -5920.354721  28382.996137  30691.962079    -23.119058
PC41  -2226.050957  18176.162567 -21004.259161   -945.532617
PC42 -22462.522317 -13599.959047  -9353.923665   -693.265469
PC43 -16462.013641  13580.008667  17955.386809     21.277222
PC44  -4885.118556 -23207.097241  14716.051256    105.782878
PC45  13271.954408 -16645.006663 -18031.873272    -97.235440
PC46  24254.209098   3602.380024  13290.549251    -53.843994
PE02  28588.052083   4777.023764  -5977.126863     37.972491
PE04 -10931.543785  17970.604173 -20814.012765   -121.713668
PE05  14160.982445  22811.799533  12475.501009    -67.723467
PE07  -2212.875549 -28895.165319   6011.349542    -44.860052
PE08  10962.075878 -17675.154776  21063.686615    -82.612072
PE09   2200.365899  28873.109242  -6169.699677    -13.780645
PE10 -15969.619611  23107.972884  -9346.839948   -533.527977
PE11  -6999.880260  22393.936157 -18050.381511   1915.620194
PE12 -21711.512954  20101.069376     -5.980522   -537.526692
PE13   7762.289675 -22572.124904  17509.823650    -19.159051
PE14 -15689.472019    820.946490  18703.575508    224.386367
PE15  21842.594407 -19983.090928   -357.293957    -21.585896
PE18  20355.630930   7600.348678 -23179.739034     60.847762
PE19 -17680.967936  -6209.240621 -22899.323066  -2540.420587
PE21 -22429.311615 -15412.942933 -11645.807596   -528.950365
PE24   2010.880675  17707.168412  23614.791067    -97.300634
PE25  22183.898353  15543.328043  11934.796366   -605.015138
PE26 -11451.225487 -11426.254757  24786.227061    103.423482
PE27  -2947.158464 -17793.990713 -23471.825058    -48.807085
PE30  18598.491663  -9313.123000 -21067.615208   -170.753513
PE31 -18074.235368   9673.008339  21356.673317   -523.688836
PE33 -22910.645261   5609.766030  17872.055191   -444.504185
PE34  22958.365627  -5783.084268 -17776.388644    -45.276734
PE36  10701.062864  11902.986654 -24903.077617    -55.706075
PG01 -10994.761812  20231.821023 -13248.360002    185.550963
PG02 -20837.362998   5062.846791  16159.357727   -596.488851
PG03  -1430.540226  15139.991095 -21917.174908   -304.065266
PG04   -919.449876  25636.195061  -6639.003421     40.778303
PG05  18187.952465  -7293.056509  17810.259975   -127.092960
PG06  18922.137790    175.289196 -18619.805696    588.065725
PG07   3938.469622  16277.228340  20971.430173    178.890812
PG08  -8165.724954  18605.081139  16821.987427   -122.289743
PG09   7484.824754  25247.214981   3207.797963   -159.447379
PG10 -23821.496268 -11447.133692   4167.505379    -36.811879
PG11  22918.912568 -11373.529933  -7052.224356   -195.909684
PG12   5460.325267 -14237.891771 -22027.417004   -375.696662
PG13  13123.166425 -11463.999911  19807.261262    519.556259
PG14  21955.300401  13629.625756   6478.105720     55.982888
PG15   5744.422159 -20050.673665  15836.583500     39.291573
PG16 -21181.395519   2303.566594  15831.980271   -501.242122
PG17  12850.603859  16442.254489 -15941.824852    714.681890
PG18  -6378.179915 -13853.653257  21728.123742   -265.142346
PG19  14832.009166   7824.479131 -20892.807853    316.528374
PG20  23963.744211  -3540.070531  10702.189899    433.729875
PG21 -16429.449964  19887.591185  -3370.361865    153.834087
PG22 -15119.579967  -3911.499174 -21054.561153    480.850775
PG23 -15866.020131 -15608.179203  14613.696403     23.991360
PG24  12625.568080 -21661.690414  -8447.785409   -187.711384
PG25  -7680.991595 -17086.483761 -19243.195130    442.619803
PG26 -26035.925417  -3765.113834   4694.534694    240.825189
PG27 -13598.957005   7256.704223  21328.856308     38.081372
PG28 -18105.040025  -1796.965723 -19371.686255     77.273868
PG29  -3070.805494 -26329.487124    480.928194   -599.313432
PG30  14221.954405   8290.646578  20993.081826   -517.340057
PG31 -22693.717648   6952.740085 -12544.478360   -216.053057
PG32 -14928.421705 -13409.499345 -17320.238108   -475.831045
PJ02 -27714.529427  22235.246350  27770.223512      0.033785
PJ03 -32580.752918  25960.213159  11485.715224      4.088087
PJ04 -23743.918129  21409.758785 -22331.512194     94.526155
PR01  12429.036033   -911.943457  22265.991671     57.445648
PR02     13.459173 -16539.680232  19491.781003    -22.845883
PR03 -11842.062952 -22014.003381   5273.663646     77.764105
PR04 -16698.829418 -15393.392209 -11588.411527    187.069791
PR05 -12627.787304   -420.521271 -22145.580270    112.507283
PR07  12278.994446  21902.111215  -4312.550148     55.852974
PR08  16865.211208  15030.835887  11882.902131    -70.774283
PR09 -11256.814187  11057.659742  20033.069542    120.010830
PR11  21773.134990   4164.405170  12645.282058    -55.369739
PR12  24276.058955  -4803.787422  -6132.591362     27.235173
PR13  13323.795555 -10383.350673 -19127.149964    -35.017970
PR14  -7594.624071 -10141.064270 -22123.925864     24.664067
PR15 -22417.709026  -3863.124086 -11515.297374     89.357440
PR16 -24330.357718   4831.330794   5878.210245     14.526023
PR17    976.398809 -19173.717260  16777.444917    629.726041
PR18  -8976.963286  -5424.210094  23261.024210     81.376623
PR19 -14600.238745   9533.753333  18610.364542   -232.520255
PR20 -12283.359074  22328.133036    168.043519    -92.819816
PR21   -181.453161  18241.766042 -17845.586357     -7.263915
PR22   9679.393241   4937.505251 -23056.369744     81.719415
PR24  11248.815400 -22882.929177    489.839003    170.099369
PR25  -1798.356964  19340.383286 -16543.578770     61.071179
EOF
